CCSDS_OMM_VERS = 2.0
CREATION_DATE  = 
ORIGINATOR     = 

OBJECT_NAME    = SL-3 R/B
OBJECT_ID      = 1982-079B
CENTER_NAME    = EARTH
REF_FRAME      = TEME
TIME_SYSTEM    = UTC
MEAN_ELEMENT_THEORY = SGP/SGP4

EPOCH          = 2026-03-24T22:56:34.881792
MEAN_MOTION    = 15.25004056
ECCENTRICITY   = .00255104
INCLINATION    = 81.1482
RA_OF_ASC_NODE = 175.0525
ARG_OF_PERICENTER = 114.4815
MEAN_ANOMALY   = 245.9083

EPHEMERIS_TYPE = 0
CLASSIFICATION_TYPE = U
NORAD_CAT_ID   = 13403
ELEMENT_SET_NO = 999
REV_AT_EPOCH   = 38002
BSTAR          = .19725338E-3
MEAN_MOTION_DOT = .4994E-4
MEAN_MOTION_DDOT = 0

CCSDS_OMM_VERS = 2.0
CREATION_DATE  = 
ORIGINATOR     = 

OBJECT_NAME    = SL-14 R/B
OBJECT_ID      = 1982-092B
CENTER_NAME    = EARTH
REF_FRAME      = TEME
TIME_SYSTEM    = UTC
MEAN_ELEMENT_THEORY = SGP/SGP4

EPOCH          = 2026-03-24T21:00:47.227104
MEAN_MOTION    = 14.86679594
ECCENTRICITY   = .00188531
INCLINATION    = 82.5665
RA_OF_ASC_NODE = 127.1940
ARG_OF_PERICENTER = 249.1877
MEAN_ANOMALY   = 283.5066

EPHEMERIS_TYPE = 0
CLASSIFICATION_TYPE = U
NORAD_CAT_ID   = 13553
ELEMENT_SET_NO = 999
REV_AT_EPOCH   = 33118
BSTAR          = .44029918E-4
MEAN_MOTION_DOT = .417E-5
MEAN_MOTION_DDOT = 0

CCSDS_OMM_VERS = 2.0
CREATION_DATE  = 
ORIGINATOR     = 

OBJECT_NAME    = SL-3 R/B
OBJECT_ID      = 1983-010B
CENTER_NAME    = EARTH
REF_FRAME      = TEME
TIME_SYSTEM    = UTC
MEAN_ELEMENT_THEORY = SGP/SGP4

EPOCH          = 2026-03-24T23:09:26.277408
MEAN_MOTION    = 15.46869287
ECCENTRICITY   = .00164225
INCLINATION    = 81.1050
RA_OF_ASC_NODE = 343.5149
ARG_OF_PERICENTER = 359.7697
MEAN_ANOMALY   = 0.3537

EPHEMERIS_TYPE = 0
CLASSIFICATION_TYPE = U
NORAD_CAT_ID   = 13819
ELEMENT_SET_NO = 999
REV_AT_EPOCH   = 36030
BSTAR          = .26350591E-3
MEAN_MOTION_DOT = .13346E-3
MEAN_MOTION_DDOT = 0

CCSDS_OMM_VERS = 2.0
CREATION_DATE  = 
ORIGINATOR     = 

OBJECT_NAME    = SL-3 R/B
OBJECT_ID      = 1983-075B
CENTER_NAME    = EARTH
REF_FRAME      = TEME
TIME_SYSTEM    = UTC
MEAN_ELEMENT_THEORY = SGP/SGP4

EPOCH          = 2026-03-24T23:17:45.063744
MEAN_MOTION    = 15.38769570
ECCENTRICITY   = .0021795
INCLINATION    = 97.6148
RA_OF_ASC_NODE = 89.1310
ARG_OF_PERICENTER = 169.7979
MEAN_ANOMALY   = 190.3712

EPHEMERIS_TYPE = 0
CLASSIFICATION_TYPE = U
NORAD_CAT_ID   = 14208
ELEMENT_SET_NO = 999
REV_AT_EPOCH   = 33250
BSTAR          = .26660751E-3
MEAN_MOTION_DOT = .10213E-3
MEAN_MOTION_DDOT = 0

CCSDS_OMM_VERS = 2.0
CREATION_DATE  = 
ORIGINATOR     = 

OBJECT_NAME    = COSMOS 1536
OBJECT_ID      = 1984-013A
CENTER_NAME    = EARTH
REF_FRAME      = TEME
TIME_SYSTEM    = UTC
MEAN_ELEMENT_THEORY = SGP/SGP4

EPOCH          = 2026-03-24T19:43:58.245888
MEAN_MOTION    = 15.24024346
ECCENTRICITY   = .0012972
INCLINATION    = 82.5421
RA_OF_ASC_NODE = 92.8018
ARG_OF_PERICENTER = 223.2954
MEAN_ANOMALY   = 136.7265

EPHEMERIS_TYPE = 0
CLASSIFICATION_TYPE = U
NORAD_CAT_ID   = 14699
ELEMENT_SET_NO = 999
REV_AT_EPOCH   = 27492
BSTAR          = .26329287E-3
MEAN_MOTION_DOT = .6426E-4
MEAN_MOTION_DDOT = 0

CCSDS_OMM_VERS = 2.0
CREATION_DATE  = 
ORIGINATOR     = 

OBJECT_NAME    = SL-14 R/B
OBJECT_ID      = 1984-027B
CENTER_NAME    = EARTH
REF_FRAME      = TEME
TIME_SYSTEM    = UTC
MEAN_ELEMENT_THEORY = SGP/SGP4

EPOCH          = 2026-03-24T21:52:18.092064
MEAN_MOTION    = 14.85991530
ECCENTRICITY   = .00165127
INCLINATION    = 82.5407
RA_OF_ASC_NODE = 230.7346
ARG_OF_PERICENTER = 284.2558
MEAN_ANOMALY   = 75.6824

EPHEMERIS_TYPE = 0
CLASSIFICATION_TYPE = U
NORAD_CAT_ID   = 14820
ELEMENT_SET_NO = 999
REV_AT_EPOCH   = 24989
BSTAR          = .54941209E-4
MEAN_MOTION_DOT = .505E-5
MEAN_MOTION_DDOT = 0

CCSDS_OMM_VERS = 2.0
CREATION_DATE  = 
ORIGINATOR     = 

OBJECT_NAME    = SL-8 R/B
OBJECT_ID      = 1985-006B
CENTER_NAME    = EARTH
REF_FRAME      = TEME
TIME_SYSTEM    = UTC
MEAN_ELEMENT_THEORY = SGP/SGP4

EPOCH          = 2026-03-24T21:45:53.446176
MEAN_MOTION    = 14.37793939
ECCENTRICITY   = .00178297
INCLINATION    = 74.0444
RA_OF_ASC_NODE = 233.1449
ARG_OF_PERICENTER = 146.6776
MEAN_ANOMALY   = 331.5463

EPHEMERIS_TYPE = 0
CLASSIFICATION_TYPE = U
NORAD_CAT_ID   = 15483
ELEMENT_SET_NO = 999
REV_AT_EPOCH   = 15621
BSTAR          = .11551393E-3
MEAN_MOTION_DOT = .322E-5
MEAN_MOTION_DDOT = 0

CCSDS_OMM_VERS = 2.0
CREATION_DATE  = 
ORIGINATOR     = 

OBJECT_NAME    = SL-12 R/B(2)
OBJECT_ID      = 1985-042D
CENTER_NAME    = EARTH
REF_FRAME      = TEME
TIME_SYSTEM    = UTC
MEAN_ELEMENT_THEORY = SGP/SGP4

EPOCH          = 2026-03-24T23:00:50.328576
MEAN_MOTION    = 14.21986597
ECCENTRICITY   = .00328518
INCLINATION    = 71.1077
RA_OF_ASC_NODE = 55.4662
ARG_OF_PERICENTER = 102.8296
MEAN_ANOMALY   = 316.9395

EPHEMERIS_TYPE = 0
CLASSIFICATION_TYPE = U
NORAD_CAT_ID   = 15772
ELEMENT_SET_NO = 999
REV_AT_EPOCH   = 11656
BSTAR          = .92899474E-4
MEAN_MOTION_DOT = .159E-5
MEAN_MOTION_DDOT = 0

CCSDS_OMM_VERS = 2.0
CREATION_DATE  = 
ORIGINATOR     = 

OBJECT_NAME    = SL-14 R/B
OBJECT_ID      = 1985-069B
CENTER_NAME    = EARTH
REF_FRAME      = TEME
TIME_SYSTEM    = UTC
MEAN_ELEMENT_THEORY = SGP/SGP4

EPOCH          = 2026-03-24T21:23:43.514304
MEAN_MOTION    = 14.86449210
ECCENTRICITY   = .0019785
INCLINATION    = 82.5304
RA_OF_ASC_NODE = 10.6420
ARG_OF_PERICENTER = 138.3804
MEAN_ANOMALY   = 221.8923

EPHEMERIS_TYPE = 0
CLASSIFICATION_TYPE = U
NORAD_CAT_ID   = 15945
ELEMENT_SET_NO = 999
REV_AT_EPOCH   = 17509
BSTAR          = .55134425E-4
MEAN_MOTION_DOT = .513E-5
MEAN_MOTION_DDOT = 0

CCSDS_OMM_VERS = 2.0
CREATION_DATE  = 
ORIGINATOR     = 

OBJECT_NAME    = SL-16 R/B
OBJECT_ID      = 1985-097B
CENTER_NAME    = EARTH
REF_FRAME      = TEME
TIME_SYSTEM    = UTC
MEAN_ELEMENT_THEORY = SGP/SGP4

EPOCH          = 2026-03-24T20:05:30.230016
MEAN_MOTION    = 14.16602925
ECCENTRICITY   = .00095231
INCLINATION    = 71.0010
RA_OF_ASC_NODE = 108.6635
ARG_OF_PERICENTER = 241.9352
MEAN_ANOMALY   = 290.7538

EPHEMERIS_TYPE = 0
CLASSIFICATION_TYPE = U
NORAD_CAT_ID   = 16182
ELEMENT_SET_NO = 999
REV_AT_EPOCH   = 8937
BSTAR          = .90130173E-4
MEAN_MOTION_DOT = .132E-5
MEAN_MOTION_DDOT = 0

CCSDS_OMM_VERS = 2.0
CREATION_DATE  = 
ORIGINATOR     = 

OBJECT_NAME    = SL-14 R/B
OBJECT_ID      = 1986-006B
CENTER_NAME    = EARTH
REF_FRAME      = TEME
TIME_SYSTEM    = UTC
MEAN_ELEMENT_THEORY = SGP/SGP4

EPOCH          = 2026-03-24T22:21:58.863456
MEAN_MOTION    = 14.86837080
ECCENTRICITY   = .00755191
INCLINATION    = 82.5244
RA_OF_ASC_NODE = 245.3878
ARG_OF_PERICENTER = 221.3502
MEAN_ANOMALY   = 138.1985

EPHEMERIS_TYPE = 0
CLASSIFICATION_TYPE = U
NORAD_CAT_ID   = 16496
ELEMENT_SET_NO = 999
REV_AT_EPOCH   = 15147
BSTAR          = .84820492E-4
MEAN_MOTION_DOT = .822E-5
MEAN_MOTION_DDOT = 0

CCSDS_OMM_VERS = 2.0
CREATION_DATE  = 
ORIGINATOR     = 

OBJECT_NAME    = COSMOS 1743
OBJECT_ID      = 1986-034A
CENTER_NAME    = EARTH
REF_FRAME      = TEME
TIME_SYSTEM    = UTC
MEAN_ELEMENT_THEORY = SGP/SGP4

EPOCH          = 2026-03-24T23:32:52.869408
MEAN_MOTION    = 15.59770814
ECCENTRICITY   = .00034747
INCLINATION    = 82.5304
RA_OF_ASC_NODE = 57.7660
ARG_OF_PERICENTER = 183.7022
MEAN_ANOMALY   = 176.4210

EPHEMERIS_TYPE = 0
CLASSIFICATION_TYPE = U
NORAD_CAT_ID   = 16719
ELEMENT_SET_NO = 999
REV_AT_EPOCH   = 18263
BSTAR          = .50078778E-3
MEAN_MOTION_DOT = .40257E-3
MEAN_MOTION_DDOT = 0

