SL-3 R/B                
1 13403U 82079B   26083.95595928  .00004994  00000+0  19725-3 0  9990
2 13403  81.1482 175.0525 0025510 114.4815 245.9083 15.25004056380021
SL-14 R/B               
1 13553U 82092B   26083.87554661  .00000417  00000+0  44030-4 0  9995
2 13553  82.5665 127.1940 0018853 249.1877 283.5066 14.86679594331183
SL-3 R/B                
1 13819U 83010B   26083.96488747  .00013346  00000+0  26351-3 0  9992
2 13819  81.1050 343.5149 0016422 359.7697   0.3537 15.46869287360305
SL-3 R/B                
1 14208U 83075B   26083.97066046  .00010213  00000+0  26661-3 0  9995
2 14208  97.6148  89.1310 0021795 169.7979 190.3712 15.38769570332503
COSMOS 1536             
1 14699U 84013A   26083.82220192  .00006426  00000+0  26329-3 0  9992
2 14699  82.5421  92.8018 0012972 223.2954 136.7265 15.24024346274924
SL-14 R/B               
1 14820U 84027B   26083.91132051  .00000505  00000+0  54941-4 0  9993
2 14820  82.5407 230.7346 0016512 284.2558  75.6824 14.85991530249896
SL-8 R/B                
1 15483U 85006B   26083.90686859  .00000322  00000+0  11551-3 0  9992
2 15483  74.0444 233.1449 0017829 146.6776 331.5463 14.37793939156211
SL-12 R/B(2)            
1 15772U 85042D   26083.95891584  .00000159  00000+0  92899-4 0  9994
2 15772  71.1077  55.4662 0032851 102.8296 316.9395 14.21986597116569
SL-14 R/B               
1 15945U 85069B   26083.89147586  .00000513  00000+0  55134-4 0  9999
2 15945  82.5304  10.6420 0019785 138.3804 221.8923 14.86449210175096
SL-16 R/B               
1 16182U 85097B   26083.83715544  .00000132  00000+0  90130-4 0  9995
2 16182  71.0010 108.6635 0009523 241.9352 290.7538 14.16602925 89370
SL-14 R/B               
1 16496U 86006B   26083.93193129  .00000822  00000+0  84820-4 0  9999
2 16496  82.5244 245.3878 0075519 221.3502 138.1985 14.86837080151470
COSMOS 1743             
1 16719U 86034A   26083.98116747  .00040257  00000+0  50079-3 0  9998
2 16719  82.5304  57.7660 0003474 183.7022 176.4210 15.59770814182638
